QZS-1R                  
1 49336U 21096A   24248.88844003 -.00000254  00000+0  00000+0 0  9998
2 49336  36.1062  89.3192 0742606 269.5274  79.0582  1.00295709 10484
